[{"OBJECT_NAME":"STARLINK-34993","OBJECT_ID":"2025-191L","EPOCH":"2026-03-09T12:49:48.264960","MEAN_MOTION":15.05653231,"ECCENTRICITY":0.00023748,"INCLINATION":97.6031,"RA_OF_ASC_NODE":301.3335,"ARG_OF_PERICENTER":85.0173,"MEAN_ANOMALY":275.1325,"EPHEMERIS_TYPE":0,"CLASSIFICATION_TYPE":"U","NORAD_CAT_ID":65389,"ELEMENT_SET_NO":999,"REV_AT_EPOCH":3024,"BSTAR":0.0002990409,"MEAN_MOTION_DOT":4.257e-5,"MEAN_MOTION_DDOT":0},{"OBJECT_NAME":"OBJECT G","OBJECT_ID":"2025-292G","EPOCH":"2026-03-09T22:41:34.708704","MEAN_MOTION":15.05879657,"ECCENTRICITY":0.00150455,"INCLINATION":97.6425,"RA_OF_ASC_NODE":145.7524,"ARG_OF_PERICENTER":352.95,"MEAN_ANOMALY":7.1513,"EPHEMERIS_TYPE":0,"CLASSIFICATION_TYPE":"U","NORAD_CAT_ID":66999,"ELEMENT_SET_NO":999,"REV_AT_EPOCH":1351,"BSTAR":0.00047153864,"MEAN_MOTION_DOT":6.807e-5,"MEAN_MOTION_DDOT":0}]
